ONEWEB-0228             
1 48780U 21045P   24267.59022589 -.00000032  00000+0 -11905-3 0  9995
2 48780  87.9103  24.8690 0001833 104.3083 255.8251 13.15551378162411
